[{"OBJECT_NAME":"STARLINK-2675","OBJECT_ID":"2021-040AU","EPOCH":"2026-03-10T00:00:02.999808","MEAN_MOTION":15.29305343,"ECCENTRICITY":7.301e-5,"INCLINATION":53.1533,"RA_OF_ASC_NODE":189.5914,"ARG_OF_PERICENTER":82.2618,"MEAN_ANOMALY":12.7891,"EPHEMERIS_TYPE":0,"CLASSIFICATION_TYPE":"U","NORAD_CAT_ID":48470,"ELEMENT_SET_NO":999,"REV_AT_EPOCH":574,"BSTAR":0.0015687282,"MEAN_MOTION_DOT":0.00045116,"MEAN_MOTION_DDOT":0},{"OBJECT_NAME":"CZ-2C DEB","OBJECT_ID":"2018-056F","EPOCH":"2026-03-09T10:57:26.102304","MEAN_MOTION":15.27739248,"ECCENTRICITY":0.00119172,"INCLINATION":98.1188,"RA_OF_ASC_NODE":250.032,"ARG_OF_PERICENTER":4.6998,"MEAN_ANOMALY":355.4349,"EPHEMERIS_TYPE":0,"CLASSIFICATION_TYPE":"U","NORAD_CAT_ID":43534,"ELEMENT_SET_NO":999,"REV_AT_EPOCH":41855,"BSTAR":0.00085537155,"MEAN_MOTION_DOT":0.00023193,"MEAN_MOTION_DDOT":0}]
